ORBCOMM-X               
1 21576U 91050C   24147.92245571  .00000595  00000+0  19256-3 0  9993
2 21576  98.3902 215.4884 0002401 273.6683  86.4232 14.42527279726416
ORBCOMM FM01            
1 23545U 95017A   24148.19509839  .00006161  00000+0  81634-3 0  9992
2 23545  69.9679 309.4799 0007269 210.1607 149.9125 14.80319760555543
ORBCOMM FM02            
1 23546U 95017B   24148.56636403  .00004881  00000+0  65471-3 0  9990
2 23546  69.9697 328.0222 0008964 199.1974 160.8839 14.79943971555198
ORBCOMM FM08            
1 25112U 97084A   24148.01686867  .00002424  00000+0  76414-3 0  9996
2 25112  45.0150  57.2738 0007064  92.8911 267.2748 14.42690079385719
ORBCOMM FM10            
1 25113U 97084B   24147.88634811  .00002383  00000+0  75372-3 0  9999
2 25113  45.0161  59.7660 0005171  59.7339 300.4022 14.42587977560673
ORBCOMM FM11            
1 25114U 97084C   24147.83720262  .00002196  00000+0  69967-3 0  9996
2 25114  45.0147  60.0827 0005962  60.5809 299.5636 14.42458502385662
ORBCOMM FM12            
1 25115U 97084D   24148.14373654  .00002075  00000+0  66394-3 0  9998
2 25115  45.0155  58.3213 0004948  61.2810 298.8537 14.42428936385710
ORBCOMM FM09            
1 25116U 97084E   24148.01692909  .00002226  00000+0  70973-3 0  9998
2 25116  45.0159  59.6178 0006200  47.7439 312.3936 14.42391645385696
